KUIPER-00232            
1 67148U 25301R   25361.66606760  .00027107  00000+0  75095-3 0  9996
2 67148  51.8746  53.0409 0001803  54.0494 306.0660 15.36766488  2667
KUIPER-00241            
1 67149U 25301S   25361.53947068  .00036386  00000+0  10176-2 0  9999
2 67149  51.8747  53.6914 0002840  98.1454 261.9855 15.36319101  2978
KUIPER-00245            
1 67150U 25301T   25361.54402808  .00032848  00000+0  93796-3 0  9999
2 67150  51.8734  53.7251 0004940 123.5361 236.6098 15.35712201  2643
KUIPER-00246            
1 67151U 25301U   25361.80192394  .00047301  00000+0  13307-2 0  9994
2 67151  51.8743  52.4506 0004026 122.1780 237.9597 15.36011660  2705
KUIPER-00247            
1 67152U 25301V   25361.75170054  .00032460  00000+0  97517-3 0  9994
2 67152  51.8637  52.8646 0011074 157.9940 202.1523 15.34073770  2679
KUIPER-00248            
1 67153U 25301W   25361.74669363  .00034130  00000+0  10033-2 0  9993
2 67153  51.8686  52.8325 0008749 145.6873 214.4679 15.34757569  2844
KUIPER-00249            
1 67154U 25301X   25361.74521613  .00032797  00000+0  96092-3 0  9996
2 67154  51.8661  52.8239 0008292 143.2791 216.8764 15.34884758  2671
KUIPER-00250            
1 67155U 25301Y   25361.61138693  .00036633  00000+0  10537-2 0  9997
2 67155  51.8718  53.4273 0006203 131.6400 228.5118 15.35424575  2680
